#cP2006  6 29  0  0  0.00000000      96 ORBIT IGb00 HLM  IGS
## 1381 345600.00000000   900.00000000 53915 0.0000000000000
+   29   G01G02G03G04G05G06G07G08G09G10G11G13G14G15G16G17G18
+        G19G20G21G22G23G24G25G26G27G28G29G30  0  0  0  0  0
+          0  0  0  0  0  0  0  0  0  0  0  0  0  0  0  0  0
+          0  0  0  0  0  0  0  0  0  0  0  0  0  0  0  0  0
+          0  0  0  0  0  0  0  0  0  0  0  0  0  0  0  0  0
++         3  3  3  3  3  3  3  3  3  3  4  3  3  3  3  3  3
++         3  3  3  3  3  3  3  3  3  4  3  3  0  0  0  0  0
++         0  0  0  0  0  0  0  0  0  0  0  0  0  0  0  0  0
++         0  0  0  0  0  0  0  0  0  0  0  0  0  0  0  0  0
++         0  0  0  0  0  0  0  0  0  0  0  0  0  0  0  0  0
%c G  cc GPS ccc cccc cccc cccc cccc ccccc ccccc ccccc ccccc
%c cc cc ccc ccc cccc cccc cccc cccc ccccc ccccc ccccc ccccc
%f  1.2500000  1.025000000  0.00000000000  0.000000000000000
%f  0.0000000  0.000000000  0.00000000000  0.000000000000000
%i    0    0    0    0      0      0      0      0         0
%i    0    0    0    0      0      0      0      0         0
/* FINAL ORBIT COMBINATION FROM WEIGHTED AVERAGE OF:        
/* cod emr esa gfz jpl mit ngs sio                          
/* REFERENCED TO IGS TIME (IGST) AND TO WEIGHTED MEAN POLE: 
/* CLK ANT Z-OFFSET (M): II/IIA 1.023; IIR 0.000            
*  2006  6 29  7 30  0.00000000
PG01   4168.581883  14291.357102  22193.228909     62.658328  8  5  7 139       
PG02 -11388.588824 -22914.925244   7271.269290      9.063989  7 11  8 120       
PG03  10384.061559  13486.565351 -20613.753271     74.669191  9 11  8 141       
PG04   -531.670646 -20496.729271  16652.359470    264.024200  7  9  7 126       
PG05 -15233.776618  -3507.248731  21263.777417    175.045246  9 10  7 156       
PG06 -25476.041668   6854.525624  -3197.553042    577.751950 10  9  7 128       
PG07  -9170.864720  16013.172317 -18804.122394    541.600524  8  8  8 108       
PG08   7065.508096 -14680.871596 -21031.347344    -70.709460  9 10 10 178       
PG09 -20419.807848 -14043.089583   9364.843826     26.055724 10 10 11 149       
PG10  -4092.146465 -19879.972466 -17061.071174     85.780007 11  6  9 129       
PG11  22467.906216   9930.631226  10339.226447    336.301365  8 11  9 148       
PG13  25480.734579  -5902.869068  -4548.650910     73.154181  9  7 10 134       
PG14 -12652.647677  14076.250972  18673.538269    -10.961392 10 10  7 141       
PG15  -7358.098435  15135.576352 -20599.704462    636.438460  9  9  3 158       
PG16    188.110065  23086.364949 -12944.947610     52.937854  8  9  6 120       
PG17  13525.728872 -14405.009631  17696.538800     99.762289  9  8  8  98       
PG18 -17100.627881  15079.220538 -13253.783759   -241.134405  9  9  6 133       
PG19  20347.674105   8700.802347 -14615.649144     -2.572324 12  7 11 134       
PG20  16048.008731   -288.470357  21064.572983    -24.803988  8  9  9 143       
PG21 -13964.977655   7165.910886 -21387.582970     38.542395  8 10  6 129       
PG22 -11802.212492  23756.875415   -985.708483    111.291868  7  8  9 134       
PG23  25671.030996   1184.691323   6959.365341    138.959352  6  5 11 146       
PG24   8164.647392 -14133.390998  21139.290512     16.797040  8  8  7 122       
PG25   7232.626952  21768.229772  13666.136217     42.132435 11 10  9 127       
PG26 -18645.621674  -9259.976971 -17229.693566   -162.535352  9 10  7 133       
PG27  14183.971948  -6203.709095 -21015.719884     55.612882 10  8  9  81       
PG28  13120.129640 -22316.751420  -4754.765046     24.238693  9 13 10 122       
PG29 -15652.682331 -10205.434650 -18760.361904    624.567675 10 10  8 132       
PG30 -17013.416078  10311.948905  17257.150154      2.107601  8  8  8 138       
*  2006  6 29  7 45  0.00000000
PG01   1694.940839  14624.752211  22298.940404     62.658985  9  6  7 139       
PG02 -10547.704829 -22305.585795   9860.065639      9.067046  7 11  8 129       
PG03   8116.652226  14157.843194 -21150.140923     74.747327  9 11  8 149       
PG04    883.483275 -19039.845697  18312.996091    264.031121  7  8  7 125       
PG05 -14575.937401  -5899.565686  21211.420800    175.079866 10 10  7 152       
PG06 -25766.092629   6580.363914   -411.911151    577.761642  9  9  7 132       
PG07 -11289.181021  16335.754194 -17355.186297    541.600598  8  9  8 115       
PG08   8590.694713 -12801.539508 -21721.216297    -70.710199  9  9 10 170       
PG09 -20910.026110 -14924.466647   6727.437325     26.057324 10 10 11 152       
PG10  -3272.926132 -21526.626269 -15089.298246     85.781604 11  7  9 129       
PG11  23011.240775  10911.016241   7906.342949    336.303372  8 11  9 149       
PG13  25845.571076  -5787.660881  -1657.433678     73.157141  8  6 10 126       
PG14 -14667.359220  14290.146367  16946.850821    -10.960621 10 10  7 131       
PG15  -8812.240237  13251.174703 -21356.389719    636.445259  9  9  3 157       
PG16   -497.561858  24280.281725 -10535.117529     52.940418  8  9  7 130       
PG17  15452.507756 -14566.730094  15886.310460     99.762973  9  8  9 102       
PG18 -16663.427512  13455.101167 -15398.873851   -241.135715 10 10  6 126       
PG19  18577.156182   9084.315379 -16586.892819     -2.570205 12  6 12 116       
PG20  15269.251930   2044.350912  21541.072952    -24.803566  8 10  9 137       
PG21 -15439.200115   5222.640281 -20982.613995     38.544494  8 10  7 127       
PG22 -11938.674329  23382.102027  -3813.710177    111.295298  7  7  9 146       
PG23  24766.398428   1553.013260   9606.578683    138.958940  5  7 11 143       
PG24   9658.582701 -12246.072457  21709.591916     16.798171  8  8  7 126       
PG25   5936.389578  20761.938830  15769.346181     42.199589 11 11  9 133       
PG26 -16704.213273  -9606.795359 -18934.451135   -162.546291 10 10  7 122       
PG27  15850.011396  -4355.478916 -20326.448421     55.613102 10  8  9  15       
PG28  13109.270685 -21524.257432  -7511.928329     24.238215  9 13 10 113       
PG29 -13448.407509 -10685.824375 -20111.239202    624.570921 10 10  8 125       
PG30 -16521.051132   8240.967406  18769.109936      2.107912  8  8  8 139       
*  2006  6 29  8  0  0.00000000
PG01   -747.151400  15096.705361  22027.827029     62.660673  9  6  7 138       
PG02  -9479.909035 -21533.752317  12279.340285      9.070120  7 10  8 132       
PG03   5842.849229  14948.762162 -21328.840713     74.825596  9 11  8 151       
PG04   2481.989348 -17530.116147  19653.923523    264.038107  7  8  6 125       
PG05 -14039.716568  -8292.312181  20787.599965    175.114581 10 10  7 150       
PG06 -25765.121480   6240.560091   2380.811361    577.769916  9  9  8 138       
PG07 -13211.830294  16706.700137 -15601.171826    541.600563  9  9  8 121       
PG08  10250.157457 -10967.905621 -22040.528031    -70.712208 10  9 10 169       
PG09 -21229.360019 -15559.583793   3974.132118     26.058285 11 10 10 157       
PG10  -2615.313767 -22989.141009 -12855.844810     85.781518 11  7  9 116       
PG11  23377.541689  11692.772375   5338.981738    336.305328  9 11  9 147       
PG13  25893.354961  -5624.484085   1262.373534     73.159908  7  6 10 122       
PG14 -16460.573792  14570.149393  14929.211246    -10.959702  9 10  7 139       
PG15 -10399.447428  11397.230447 -21748.623285    636.451389  9  9  4 163       
PG16  -1035.403770  25236.497530  -7942.153800     52.942871  8 10  7 135       
PG17  17153.842614 -14777.464836  13801.474548     99.763666  8  8  9 105       
PG18 -16233.826072  11595.247910 -17273.474139   -241.137371 10  9  6 129       
PG19  16623.375717   9594.260618 -18271.057852     -2.568327 12  5 12 115       
PG20  14601.959618   4445.481360  21643.681648    -24.803038  8 10  8 134       
PG21 -16961.074384   3408.827955 -20216.950243     38.546712  8  9  8 139       
PG22 -11988.455072  22715.821858  -6575.825020    111.299027  8  8  8 144       
PG23  23599.965724   2037.511891  12089.360030    138.958394  6  8 11 141       
PG24  11275.644041 -10408.929985  21913.452110     16.799991  8  7  7 128       
PG25   4428.073315  19678.668832  17606.596185     42.267319 11 11 10 138       
PG26 -14616.526237 -10102.441781 -20329.534178   -162.557424 10 10  7 123       
PG27  17530.321371  -2667.186444 -19270.364899     55.615067 10  8  9  92       
PG28  13045.601158 -20437.380620 -10135.887980     24.237688  9 12 10 123       
PG29 -11140.777472 -11322.271177 -21111.645959    624.573960 10 10  7 127       
PG30 -16090.984100   5999.052884  19949.478278      2.109528  8  7  8 138       
EOF
